OPS 7218 (TRANSIT 16)   
1 02807U 67048A   26095.75665634  .00000156  00000+0  22595-3 0  9993
2 02807  89.6791 350.2911 0021107 141.5288 280.4012 13.50751297898158
OPS 4947 (TRANSIT 17)   
1 02965U 67092A   26095.73399941  .00000169  00000+0  23428-3 0  9990
2 02965  89.2590  15.7771 0045576 265.1955 151.3218 13.53485033886395
OPS 7034 (TRANSIT 18)   
1 03133U 68012A   26095.56843901  .00000144  00000+0  20400-3 0  9992
2 03133  90.0206 273.9253 0073232 199.4250 227.0642 13.51595640584567
NNSS 19 (TRANSIT 19)    
1 04507U 70067A   26095.80373694  .00000153  00000+0  20462-3 0  9993
2 04507  90.0111 234.6068 0170416 322.8810  36.0653 13.51345207737621
NNSS 20 (TRANSIT 20)    
1 06909U 73081A   26095.86755413  .00000262  00000+0  25417-3 0  9995
2 06909  89.8548 253.3130 0156573  96.0298 265.8732 13.71487672819250
TRANSAT                 
1 10457U 77106A   26095.86809669  .00000083  00000+0  11697-3 0  9999
2 10457  89.6428  74.4940 0024054 221.1492 200.8141 13.48962164382823
NOVA 1                  
1 12458U 81044A   26095.78065946  .00000052  00000+0  10026-3 0  9992
2 12458  89.8422  89.7051 0015286 143.5572  31.7736 13.23290809166944
NOVA 3                  
1 15362U 84110A   26095.87897425  .00000063  00000+0  12884-3 0  9997
2 15362  90.1144  81.8131 0032173  18.1617  42.7222 13.23061206  2072
OSCAR 30                
1 15935U 85066A   26095.58429183  .00000097  00000+0  15641-3 0  9995
2 15935  90.1523 101.6404 0169462 122.1383 352.2807 13.36100081979734
OSCAR 24                
1 15936U 85066B   26095.58292715  .00000101  00000+0  16413-3 0  9999
2 15936  90.1676  94.2487 0170329 128.6038 356.2928 13.35957419981638
POLAR BEAR              
1 17070U 86088A   26095.78158060  .00000144  00000+0  13778-3 0  9999
2 17070  89.6252 179.2552 0041004 134.6743 340.4113 13.75276414975464
OSCAR 27                
1 18361U 87080A   26095.52268886  .00000098  00000+0  14983-3 0  9993
2 18361  90.3661  83.4611 0101784 258.5264 100.4440 13.44929285890863
OSCAR 29                
1 18362U 87080B   26095.87040145  .00000073  00000+0  10909-3 0  9995
2 18362  90.3669  83.9413 0103401 281.2947 143.9320 13.44468889890436
OSCAR 23                
1 19070U 88033A   26095.84093853  .00000093  00000+0  17302-3 0  9998
2 19070  90.3325  19.9747 0187912 222.7486 200.5482 13.27807325837677
OSCAR 32                
1 19071U 88033B   26095.52567819  .00000085  00000+0  15692-3 0  9993
2 19071  90.3329  20.1023 0186580 210.3026 324.9321 13.27971252837759
NOVA 2                  
1 19223U 88052A   26095.89102542  .00000062  00000+0  12671-3 0  9990
2 19223  89.9805  78.0682 0032150  60.6885 357.5515 13.22951283824576
OSCAR 25                
1 19419U 88074A   26095.84285550  .00000119  00000+0  19115-3 0  9990
2 19419  90.0452  20.6576 0094209 281.2372 141.5559 13.42647504841718
