[{"OBJECT_NAME":"OPS 7218 (TRANSIT 16)","OBJECT_ID":"1967-048A","EPOCH":"2026-04-05T18:09:35.107776","MEAN_MOTION":13.50751297,"ECCENTRICITY":0.0021107,"INCLINATION":89.6791,"RA_OF_ASC_NODE":350.2911,"ARG_OF_PERICENTER":141.5288,"MEAN_ANOMALY":280.4012,"EPHEMERIS_TYPE":0,"CLASSIFICATION_TYPE":"U","NORAD_CAT_ID":2807,"ELEMENT_SET_NO":999,"REV_AT_EPOCH":89815,"BSTAR":0.00022595,"MEAN_MOTION_DOT":1.56e-6,"MEAN_MOTION_DDOT":0},{"OBJECT_NAME":"OPS 4947 (TRANSIT 17)","OBJECT_ID":"1967-092A","EPOCH":"2026-04-05T17:36:57.549024","MEAN_MOTION":13.53485033,"ECCENTRICITY":0.0045576,"INCLINATION":89.259,"RA_OF_ASC_NODE":15.7771,"ARG_OF_PERICENTER":265.1955,"MEAN_ANOMALY":151.3218,"EPHEMERIS_TYPE":0,"CLASSIFICATION_TYPE":"U","NORAD_CAT_ID":2965,"ELEMENT_SET_NO":999,"REV_AT_EPOCH":88639,"BSTAR":0.00023428,"MEAN_MOTION_DOT":1.69e-6,"MEAN_MOTION_DDOT":0},{"OBJECT_NAME":"OPS 7034 (TRANSIT 18)","OBJECT_ID":"1968-012A","EPOCH":"2026-04-05T13:38:33.130464","MEAN_MOTION":13.5159564,"ECCENTRICITY":0.0073232,"INCLINATION":90.0206,"RA_OF_ASC_NODE":273.9253,"ARG_OF_PERICENTER":199.425,"MEAN_ANOMALY":227.0642,"EPHEMERIS_TYPE":0,"CLASSIFICATION_TYPE":"U","NORAD_CAT_ID":3133,"ELEMENT_SET_NO":999,"REV_AT_EPOCH":58456,"BSTAR":0.000204,"MEAN_MOTION_DOT":1.44e-6,"MEAN_MOTION_DDOT":0},{"OBJECT_NAME":"NNSS 19 (TRANSIT 19)","OBJECT_ID":"1970-067A","EPOCH":"2026-04-05T19:17:22.871616","MEAN_MOTION":13.51345207,"ECCENTRICITY":0.0170416,"INCLINATION":90.0111,"RA_OF_ASC_NODE":234.6068,"ARG_OF_PERICENTER":322.881,"MEAN_ANOMALY":36.0653,"EPHEMERIS_TYPE":0,"CLASSIFICATION_TYPE":"U","NORAD_CAT_ID":4507,"ELEMENT_SET_NO":999,"REV_AT_EPOCH":73762,"BSTAR":0.00020462,"MEAN_MOTION_DOT":1.53e-6,"MEAN_MOTION_DDOT":0},{"OBJECT_NAME":"NNSS 20 (TRANSIT 20)","OBJECT_ID":"1973-081A","EPOCH":"2026-04-05T20:49:16.676832","MEAN_MOTION":13.71487672,"ECCENTRICITY":0.0156573,"INCLINATION":89.8548,"RA_OF_ASC_NODE":253.313,"ARG_OF_PERICENTER":96.0298,"MEAN_ANOMALY":265.8732,"EPHEMERIS_TYPE":0,"CLASSIFICATION_TYPE":"U","NORAD_CAT_ID":6909,"ELEMENT_SET_NO":999,"REV_AT_EPOCH":81925,"BSTAR":0.00025417,"MEAN_MOTION_DOT":2.62e-6,"MEAN_MOTION_DDOT":0},{"OBJECT_NAME":"TRANSAT","OBJECT_ID":"1977-106A","EPOCH":"2026-04-05T20:50:03.554016","MEAN_MOTION":13.48962164,"ECCENTRICITY":0.0024054,"INCLINATION":89.6428,"RA_OF_ASC_NODE":74.494,"ARG_OF_PERICENTER":221.1492,"MEAN_ANOMALY":200.8141,"EPHEMERIS_TYPE":0,"CLASSIFICATION_TYPE":"U","NORAD_CAT_ID":10457,"ELEMENT_SET_NO":999,"REV_AT_EPOCH":38282,"BSTAR":0.00011697,"MEAN_MOTION_DOT":8.3e-7,"MEAN_MOTION_DDOT":0},{"OBJECT_NAME":"NOVA 1","OBJECT_ID":"1981-044A","EPOCH":"2026-04-05T18:44:08.977344","MEAN_MOTION":13.23290809,"ECCENTRICITY":0.0015286,"INCLINATION":89.8422,"RA_OF_ASC_NODE":89.7051,"ARG_OF_PERICENTER":143.5572,"MEAN_ANOMALY":31.7736,"EPHEMERIS_TYPE":0,"CLASSIFICATION_TYPE":"U","NORAD_CAT_ID":12458,"ELEMENT_SET_NO":999,"REV_AT_EPOCH":16694,"BSTAR":0.00010026,"MEAN_MOTION_DOT":5.2e-7,"MEAN_MOTION_DDOT":0},{"OBJECT_NAME":"NOVA 3","OBJECT_ID":"1984-110A","EPOCH":"2026-04-05T21:05:43.375200","MEAN_MOTION":13.23061206,"ECCENTRICITY":0.0032173,"INCLINATION":90.1144,"RA_OF_ASC_NODE":81.8131,"ARG_OF_PERICENTER":18.1617,"MEAN_ANOMALY":42.7222,"EPHEMERIS_TYPE":0,"CLASSIFICATION_TYPE":"U","NORAD_CAT_ID":15362,"ELEMENT_SET_NO":999,"REV_AT_EPOCH":207,"BSTAR":0.00012884,"MEAN_MOTION_DOT":6.3e-7,"MEAN_MOTION_DDOT":0},{"OBJECT_NAME":"OSCAR 30","OBJECT_ID":"1985-066A","EPOCH":"2026-04-05T14:01:22.814112","MEAN_MOTION":13.36100081,"ECCENTRICITY":0.0169462,"INCLINATION":90.1523,"RA_OF_ASC_NODE":101.6404,"ARG_OF_PERICENTER":122.1383,"MEAN_ANOMALY":352.2807,"EPHEMERIS_TYPE":0,"CLASSIFICATION_TYPE":"U","NORAD_CAT_ID":15935,"ELEMENT_SET_NO":999,"REV_AT_EPOCH":97973,"BSTAR":0.00015641,"MEAN_MOTION_DOT":9.7e-7,"MEAN_MOTION_DDOT":0},{"OBJECT_NAME":"OSCAR 24","OBJECT_ID":"1985-066B","EPOCH":"2026-04-05T13:59:24.905760","MEAN_MOTION":13.35957419,"ECCENTRICITY":0.0170329,"INCLINATION":90.1676,"RA_OF_ASC_NODE":94.2487,"ARG_OF_PERICENTER":128.6038,"MEAN_ANOMALY":356.2928,"EPHEMERIS_TYPE":0,"CLASSIFICATION_TYPE":"U","NORAD_CAT_ID":15936,"ELEMENT_SET_NO":999,"REV_AT_EPOCH":98163,"BSTAR":0.00016413,"MEAN_MOTION_DOT":1.01e-6,"MEAN_MOTION_DDOT":0},{"OBJECT_NAME":"POLAR BEAR","OBJECT_ID":"1986-088A","EPOCH":"2026-04-05T18:45:28.563840","MEAN_MOTION":13.75276414,"ECCENTRICITY":0.0041004,"INCLINATION":89.6252,"RA_OF_ASC_NODE":179.2552,"ARG_OF_PERICENTER":134.6743,"MEAN_ANOMALY":340.4113,"EPHEMERIS_TYPE":0,"CLASSIFICATION_TYPE":"U","NORAD_CAT_ID":17070,"ELEMENT_SET_NO":999,"REV_AT_EPOCH":97546,"BSTAR":0.00013778,"MEAN_MOTION_DOT":1.44e-6,"MEAN_MOTION_DDOT":0},{"OBJECT_NAME":"OSCAR 27","OBJECT_ID":"1987-080A","EPOCH":"2026-04-05T12:32:40.317504","MEAN_MOTION":13.44929285,"ECCENTRICITY":0.01017849,"INCLINATION":90.3661,"RA_OF_ASC_NODE":83.4611,"ARG_OF_PERICENTER":258.5264,"MEAN_ANOMALY":100.444,"EPHEMERIS_TYPE":0,"CLASSIFICATION_TYPE":"U","NORAD_CAT_ID":18361,"ELEMENT_SET_NO":999,"REV_AT_EPOCH":89086,"BSTAR":0.00014983064,"MEAN_MOTION_DOT":9.8e-7,"MEAN_MOTION_DDOT":0},{"OBJECT_NAME":"OSCAR 29","OBJECT_ID":"1987-080B","EPOCH":"2026-04-05T20:53:22.685280","MEAN_MOTION":13.44468889,"ECCENTRICITY":0.0103401,"INCLINATION":90.3669,"RA_OF_ASC_NODE":83.9413,"ARG_OF_PERICENTER":281.2947,"MEAN_ANOMALY":143.932,"EPHEMERIS_TYPE":0,"CLASSIFICATION_TYPE":"U","NORAD_CAT_ID":18362,"ELEMENT_SET_NO":999,"REV_AT_EPOCH":89043,"BSTAR":0.00010909,"MEAN_MOTION_DOT":7.3e-7,"MEAN_MOTION_DDOT":0},{"OBJECT_NAME":"OSCAR 23","OBJECT_ID":"1988-033A","EPOCH":"2026-04-05T20:10:57.088992","MEAN_MOTION":13.27807325,"ECCENTRICITY":0.0187912,"INCLINATION":90.3325,"RA_OF_ASC_NODE":19.9747,"ARG_OF_PERICENTER":222.7486,"MEAN_ANOMALY":200.5482,"EPHEMERIS_TYPE":0,"CLASSIFICATION_TYPE":"U","NORAD_CAT_ID":19070,"ELEMENT_SET_NO":999,"REV_AT_EPOCH":83767,"BSTAR":0.00017302,"MEAN_MOTION_DOT":9.3e-7,"MEAN_MOTION_DDOT":0},{"OBJECT_NAME":"OSCAR 32","OBJECT_ID":"1988-033B","EPOCH":"2026-04-05T12:36:58.595616","MEAN_MOTION":13.27971252,"ECCENTRICITY":0.01865801,"INCLINATION":90.3329,"RA_OF_ASC_NODE":20.1023,"ARG_OF_PERICENTER":210.3026,"MEAN_ANOMALY":324.9321,"EPHEMERIS_TYPE":0,"CLASSIFICATION_TYPE":"U","NORAD_CAT_ID":19071,"ELEMENT_SET_NO":999,"REV_AT_EPOCH":83775,"BSTAR":0.00015691987,"MEAN_MOTION_DOT":8.5e-7,"MEAN_MOTION_DDOT":0},{"OBJECT_NAME":"NOVA 2","OBJECT_ID":"1988-052A","EPOCH":"2026-04-05T21:23:04.596288","MEAN_MOTION":13.22951283,"ECCENTRICITY":0.003215,"INCLINATION":89.9805,"RA_OF_ASC_NODE":78.0682,"ARG_OF_PERICENTER":60.6885,"MEAN_ANOMALY":357.5515,"EPHEMERIS_TYPE":0,"CLASSIFICATION_TYPE":"U","NORAD_CAT_ID":19223,"ELEMENT_SET_NO":999,"REV_AT_EPOCH":82457,"BSTAR":0.00012671,"MEAN_MOTION_DOT":6.2e-7,"MEAN_MOTION_DDOT":0},{"OBJECT_NAME":"OSCAR 25","OBJECT_ID":"1988-074A","EPOCH":"2026-04-05T20:13:42.715200","MEAN_MOTION":13.42647504,"ECCENTRICITY":0.0094209,"INCLINATION":90.0452,"RA_OF_ASC_NODE":20.6576,"ARG_OF_PERICENTER":281.2372,"MEAN_ANOMALY":141.5559,"EPHEMERIS_TYPE":0,"CLASSIFICATION_TYPE":"U","NORAD_CAT_ID":19419,"ELEMENT_SET_NO":999,"REV_AT_EPOCH":84171,"BSTAR":0.00019115,"MEAN_MOTION_DOT":1.19e-6,"MEAN_MOTION_DDOT":0}]
